FACSAT-1                
1 43721U 18096C   22114.08617398  .00020133  00000+0  61342-3 0  9990
2 43721  97.3517 194.0438 0013779 242.7558 234.7010 15.33912864189636
CENTAURI-2              
1 43722U 18096D   22113.45013616  .00031206  00000+0  87545-3 0  9990
2 43722  97.3566 195.1052 0013465 242.3992 117.5885 15.36427086189622
INNOSAT-2               
1 43738U 18096V   22114.07082876  .00045363  00000+0  99888-3 0  9992
2 43738  97.3669 201.9933 0016114 231.5917 212.5589 15.43680900190104
SIRION PATHFINDER-2     
1 43759U 18099B   22113.80299445  .00003165  00000+0  28564-3 0  9997
2 43759  97.6239 181.9976 0015818  86.2528 274.0502 14.96125452184878
CORVUS BC4              
1 43767U 18099K   22113.80210079  .00003075  00000+0  28209-3 0  9998
2 43767  97.6201 180.5833 0013361  91.3676 268.9076 14.95524672184802
MOVE-II                 
1 43780U 18099Y   22113.42294790  .00004977  00000+0  43428-3 0  9995
2 43780  97.6286 182.1995 0014789  96.1915 264.0993 14.97193708184822
SPACEBEE-7              
1 43816U 18099BL  22113.47477691  .00005482  00000+0  47789-3 0  9999
2 43816  97.6296 182.9694 0014838  82.4995 277.7913 14.97188058184429
SPACEBEE-5              
1 43817U 18099BM  22113.45437241  .00012322  00000+0  99360-3 0  9998
2 43817  97.6394 185.4642 0011447  85.9687 274.2845 14.99980836184522
SPACEBEE-6              
1 43818U 18099BN  22113.46522519  .00007161  00000+0  60987-3 0  9991
2 43818  97.6322 183.7193 0014172  82.5436 277.7396 14.98000429184607
SHIELDS 1               
1 43850U 18104B   22113.39247558  .00005864  00000+0  24637-3 0  9993
2 43850  85.0260  88.7392 0016908 105.8952 254.4155 15.23075750186123
STF-1                   
1 43852U 18104D   22113.65049770  .00013957  00000+0  54886-3 0  9991
2 43852  85.0293  89.0198 0016151 115.6318 244.6596 15.25413731186187
ZACUBE-2                
1 43907U 18111AH  22114.07533183  .00005249  00000+0  20140-3 0  9994
2 43907  97.1976   2.3182 0018455 274.1766 222.0111 15.26742412184990
LUME 1                  
1 43908U 18111AJ  22113.50131933  .00012915  00000+0  45621-3 0  9998
2 43908  97.1984   3.0591 0016919 269.8124  90.1178 15.29195652184992
AOBA VELOX-IV           
1 43940U 19003J   22113.36463598  .00034276  00000+0  10362-2 0  9991
2 43940  97.1350 150.9519 0017866 348.7447  11.3394 15.33984915181674
MOVE-IIB                
1 44398U 19038N   22114.17114422  .00013941  00000+0  70083-3 0  9999
2 44398  97.6239  83.0970 0020815 321.9526  38.0255 15.17179752154803
SONATE                  
1 44400U 19038Q   22114.20876363  .00006309  00000+0  34853-3 0  9991
2 44400  97.6336  82.5103 0022944 324.5764  35.3943 15.14053043154721
LUCKY-7                 
1 44406U 19038W   22113.44494427  .00008545  00000+0  46075-3 0  9992
2 44406  97.6343  82.1845 0021786 325.1433  34.8370 15.14826663154631
BEESAT 9                
1 44412U 19038AC  22113.41753509  .00011531  00000+0  60328-3 0  9991
2 44412  97.6315  82.3581 0019489 330.4688  29.5442 15.15845014154356
JAISAT-1                
1 44419U 19038F   22114.14641295  .00012263  00000+0  63273-3 0  9992
2 44419  97.6317  83.8853 0018289 325.1945  34.8090 15.16339998154827
DUCHIFAT-3              
1 44854U 19089C   22114.15366034  .00004360  00000+0  34425-3 0  9993
2 44854  36.9657  62.1546 0006756 149.1456 210.9914 15.00628175129778
EYESAT-NANO             
1 44877U 19092E   22113.48114144  .00014039  00000+0  63154-3 0  9995
2 44877  97.4652 298.2839 0012268 183.4451 176.6702 15.21150320130004
ORBITAL FACTORY 2 (OF-2)
1 45113U 19071C   22113.03010486  .00028270  00000+0  64883-3 0  9993
2 45113  51.6399 331.4954 0008715 331.2454  28.8051 15.42453597124816
M2 PATHFINDER           
1 45727U 20037E   22113.49073319  .00001209  00000+0  12513-3 0  9998
2 45727  97.7316 289.9728 0011750 215.8656 144.1769 14.91835140 98636
NETSAT-4                
1 46504U 20068U   22113.52742089  .00002610  00000+0  19817-3 0  9998
2 46504  97.7199  53.4542 0012117 142.2949 217.9157 15.03028441 85798
NETSAT-3                
1 46505U 20068V   22113.54116515  .00002662  00000+0  20212-3 0  9998
2 46505  97.7201  53.3984 0011913 147.5839 212.6142 15.03008617 85802
NETSAT-1                
1 46506U 20068W   22113.55571920  .00003188  00000+0  24142-3 0  9995
2 46506  97.7197  53.3500 0010325 157.9727 202.1937 15.02975171 85801
NETSAT-2                
1 46507U 20068X   22113.56420503  .00003358  00000+0  25438-3 0  9995
2 46507  97.7187  53.3512 0009442 167.0434 193.1032 15.02938856 85757
SPOC                    
1 46921U 98067RR  22113.29933679  .00160719  00000+0  95631-3 0  9999
2 46921  51.6310 216.0677 0005466 329.0872  30.9806 15.76938022 83258
NEUTRON-1               
1 46923U 98067RT  22113.59318863  .00156872  00000+0  93729-3 0  9997
2 46923  51.6319 215.0399 0005424 323.6156  36.4475 15.76857250 83311
DESCENT                 
1 46927U 98067RX  22113.87727826  .00191056  00000+0  10645-2 0  9993
2 46927  51.6323 213.1796 0006255 326.2172  33.8429 15.78313020 83279
SAI-1 NANOCONNECT-2     
1 47701U 21015C   22113.18082403  .00013433  00000+0  52580-3 0  9999
2 47701  97.4247 190.4287 0010164 288.8647  71.1488 15.25890256 63786
WARP-01                 
1 47924U 98067SA  22113.56124443  .00943988  44174-3  17590-2 0  9992
2 47924  51.6250 216.9316 0012312 334.4338  25.6062 16.00324586 63254
RSP-01                  
1 47925U 98067SB  22113.77898276  .00226759  00000+0  13068-2 0  9990
2 47925  51.6338 223.0383 0006561 331.6377  28.4265 15.77449709 63171
TAUSAT-1                
1 47926U 98067SC  22113.55615003  .00660247  19550-3  15743-2 0  9992
2 47926  51.6194 216.1731 0012100 340.6928  19.3620 15.95901461 63239
TSURU                   
1 47927U 98067SD  22113.60258278  .00150996  00000+0  10767-2 0  9998
2 47927  51.6338 226.3611 0005021 329.6954  30.3754 15.72804676 63113
MAYA-2                  
1 47929U 98067SF  22113.34749127  .00147748  00000+0  10641-2 0  9991
2 47929  51.6336 227.6578 0004873 329.3769  30.6945 15.72582349 63030
GUARANISAT-1            
1 47931U 98067SH  22113.77986370  .00151162  00000+0  10719-2 0  9995
2 47931  51.6351 225.3134 0005088 331.7783  28.2939 15.72934374 63142
SMOG-1                  
1 47964U 21022AJ  22113.35906236  .00008787  00000+0  55508-3 0  9995
2 47964  97.5343  14.9489 0017855 330.5290  29.4930 15.09160631 58570
MMSATS-1                
1 47976U 98067SJ  22114.24551334  .00027348  00000+0  38613-3 0  9997
2 47976  51.6394 236.6417 0001378 178.2920 181.8121 15.56356149 61813
BCCSAT-1                
1 48041U 21022AK  22113.44796127  .00008256  00000+0  53325-3 0  9994
2 48041  97.5357  14.7216 0014218 329.9146  30.1264 15.08414525 58549
RAMSAT                  
1 48850U 98067SL  22113.55108465  .00072374  00000+0  78629-3 0  9995
2 48850  51.6381 236.5173 0003973 264.5620  95.4921 15.62807412 48722
BD-28                   
1 48867U 98067SN  22114.20911636  .00092983  00000+0  92962-3 0  9992
2 48867  51.6344 231.8878 0004983 296.6734  63.3751 15.64809215 47597
BINAR-1                 
1 49272U 98067SR  22113.80143023  .00078988  00000+0  88847-3 0  9991
2 49272  51.6372 238.9184 0001130  45.6995 314.4091 15.61883606 31109
MAYA-3                  
1 49273U 98067SS  22112.83292089  .00103995  00000+0  10101-2 0  9995
2 49273  51.6366 242.1993 0001958 343.0380  17.0550 15.65496526 30974
MAYA-4                  
1 49274U 98067ST  22113.80133444  .00115591  00000+0  11203-2 0  9992
2 49274  51.6361 237.4145 0002243 348.1357  11.9585 15.65501572 31121
CUAVA-1                 
1 49275U 98067SU  22114.17043456  .00094115  00000+0  97561-3 0  9997
2 49275  51.6397 235.9907 0001011  25.2218  37.0226 15.63899879 31120
